NORAD_CAT_ID,OBJECT_NAME,OBJECT_TYPE,EPOCH,MEAN_MOTION,ECCENTRICITY,INCLINATION,RA_OF_ASC_NODE,ARG_OF_PERICENTER,MEAN_ANOMALY,BSTAR,MEAN_MOTION_DOT,MEAN_MOTION_DDOT,TLE_LINE0,TLE_LINE1,TLE_LINE2,SEMIMAJOR_AXIS,PERIOD,APOGEE,PERIGEE,DECAYED
54774.0,STARLINK-5454,PAYLOAD,2023-05-22 19:41:19,15.10495531,9.43e-05,53.2168,296.3568,98.6618,261.4482,2.3062e-05,9.2e-07,0.0,0 STARLINK-5454,1 54774U 22175S   23142.82036255  .00000092  00000-0  23062-4 0  9995,2 54774  53.2168 296.3568 0000943  98.6618 261.4482 15.10495531 23700,6912.825,95.333,535.342,534.038,0.0
54774.0,STARLINK-5454,PAYLOAD,2023-05-23 03:37:45,15.10473188,0.0001037,53.2168,294.8698,77.9407,282.1702,-8.7444e-06,-4.38e-06,0.0,0 STARLINK-5454,1 54774U 22175S   23143.15121810 -.00000438  00000-0 -87444-5 0  9995,2 54774  53.2168 294.8698 0001037  77.9407 282.1702 15.10473188 23752,6912.893,95.334,535.475,534.041,0.0
54774.0,STARLINK-5454,PAYLOAD,2023-05-23 16:20:00,15.10464987,9.54e-05,53.2167,292.4862,83.8144,276.2957,8.5363e-05,1.129e-05,0.0,0 STARLINK-5454,1 54774U 22175S   23143.68056704  .00001129  00000-0  85363-4 0  9995,2 54774  53.2167 292.4862 0000954  83.8144 276.2957 15.10464987 25990,6912.918,95.335,535.442,534.123,0.0
54774.0,STARLINK-5454,PAYLOAD,2023-05-24 14:33:57,15.1047997,9.34e-05,53.2166,288.3162,87.2123,272.8977,-2.9824e-05,-7.89e-06,0.0,0 STARLINK-5454,1 54774U 22175S   23144.60691706 -.00000789  00000-0 -29824-4 0  9998,2 54774  53.2166 288.3162 0000934  87.2123 272.8977 15.10479970 23977,6912.872,95.334,535.383,534.092,0.0
54774.0,STARLINK-5454,PAYLOAD,2023-05-25 14:23:11,15.10474113,0.0001009,53.217,283.8495,80.4139,279.6968,3.3796e-05,2.7e-06,0.0,0 STARLINK-5454,1 54774U 22175S   23145.59944003  .00000270  00000-0  33796-4 0  9994,2 54774  53.2170 283.8495 0001009  80.4139 279.6968 15.10474113 26283,6912.89,95.334,535.453,534.058,0.0
54774.0,STARLINK-5454,PAYLOAD,2023-05-26 09:26:34,15.10476528,9.72e-05,53.2169,280.2761,89.8694,270.2411,-4.3249e-06,-3.64e-06,0.0,0 STARLINK-5454,1 54774U 22175S   23146.39345750 -.00000364  00000-0 -43249-5 0  9998,2 54774  53.2169 280.2761 0000972  89.8694 270.2411 15.10476528 24241,6912.883,95.334,535.42,534.076,0.0
54774.0,STARLINK-5454,PAYLOAD,2023-05-26 14:12:25,15.10477075,9.76e-05,53.217,279.3828,88.8061,271.3044,2.4821e-08,-2.92e-06,0.0,0 STARLINK-5454,1 54774U 22175S   23146.59196121 -.00000292  00000-0  24821-7 0  9992,2 54774  53.2170 279.3828 0000976  88.8061 271.3044 15.10477075 26432,6912.881,95.334,535.421,534.071,0.0
54774.0,STARLINK-5454,PAYLOAD,2023-05-26 18:58:15,15.10479887,0.0001028,53.2172,278.4881,99.6053,260.5056,2.1936e-05,7.3e-07,0.0,0 STARLINK-5454,1 54774U 22175S   23146.79046218  .00000073  00000-0  21936-4 0  9992,2 54774  53.2172 278.4881 0001028  99.6053 260.5056 15.10479887 26462,6912.872,95.334,535.448,534.027,0.0
54774.0,STARLINK-5454,PAYLOAD,2023-05-27 01:19:24,15.10458283,9.26e-05,53.2165,277.2951,100.4608,259.6489,0.00018643,2.811e-05,0.0,0 STARLINK-5454,1 54774U 22175S   23147.05514308  .00002811  00000-0  18643-3 0  9994,2 54774  53.2165 277.2951 0000926 100.4608 259.6489 15.10458283 24343,6912.938,95.335,535.444,534.163,0.0
54774.0,STARLINK-5454,PAYLOAD,2023-05-27 15:36:56,15.10474122,9.11e-05,53.2171,274.6203,89.3541,270.7557,-1.7948e-05,-5.91e-06,0.0,0 STARLINK-5454,1 54774U 22175S   23147.65065507 -.00000591  00000-0 -17948-4 0  9995,2 54774  53.2171 274.6203 0000911  89.3541 270.7557 15.10474122 24436,6912.89,95.334,535.385,534.125,0.0
54774.0,STARLINK-5454,PAYLOAD,2023-05-28 01:08:38,15.10472471,8.79e-05,53.2169,272.8337,88.7404,271.3689,-1.4183e-05,-5.28e-06,0.0,0 STARLINK-5454,1 54774U 22175S   23148.04766527 -.00000528  00000-0 -14183-4 0  9997,2 54774  53.2169 272.8337 0000879  88.7404 271.3689 15.10472471 26659,6912.895,95.334,535.368,534.152,0.0
54774.0,STARLINK-5454,PAYLOAD,2023-05-28 13:50:53,15.10481232,8.63e-05,53.2164,270.4515,93.0938,267.0154,-7.5731e-06,-4.18e-06,0.0,0 STARLINK-5454,1 54774U 22175S   23148.57700521 -.00000418  00000-0 -75731-5 0  9992,2 54774  53.2164 270.4515 0000863  93.0938 267.0154 15.10481232 24573,6912.868,95.334,535.33,534.137,0.0
54774.0,STARLINK-5454,PAYLOAD,2023-05-29 10:29:33,15.10470998,9.84e-05,53.2173,266.5814,100.4666,259.6437,1.0656e-05,-1.15e-06,0.0,0 STARLINK-5454,1 54774U 22175S   23149.43719710 -.00000115  00000-0  10656-4 0  9995,2 54774  53.2173 266.5814 0000984 100.4666 259.6437 15.10470998 24709,6912.9,95.335,535.445,534.084,0.0
54774.0,STARLINK-5454,PAYLOAD,2023-05-29 13:40:07,15.10473075,9.81e-05,53.2174,265.9856,97.9213,262.1891,8.1036e-06,-1.58e-06,0.0,0 STARLINK-5454,1 54774U 22175S   23149.56953260 -.00000158  00000-0  81036-5 0  9997,2 54774  53.2174 265.9856 0000981  97.9213 262.1891 15.10473075 26887,6912.893,95.334,535.436,534.08,0.0
54774.0,STARLINK-5454,PAYLOAD,2023-05-29 16:50:41,15.10479047,0.0001103,53.2171,265.3889,100.0706,260.0411,1.0268e-05,-1.22e-06,0.0,0 STARLINK-5454,1 54774U 22175S   23149.70186509 -.00000122  00000-0  10268-4 0  9996,2 54774  53.2171 265.3889 0001103 100.0706 260.0411 15.10479047 24747,6912.875,95.334,535.502,533.978,0.0
54774.0,STARLINK-5454,PAYLOAD,2023-05-30 11:54:04,15.10471725,9.95e-05,53.2168,261.8126,79.7462,280.3643,-1.3668e-05,-5.2e-06,0.0,0 STARLINK-5454,1 54774U 22175S   23150.49588924 -.00000520  00000-0 -13668-4 0  9991,2 54774  53.2168 261.8126 0000995  79.7462 280.3643 15.10471725 27028,6912.897,95.334,535.45,534.075,0.0
54774.0,STARLINK-5454,PAYLOAD,2023-05-30 16:39:55,15.10478274,0.0001109,53.2178,260.9195,81.6683,278.4435,-2.3376e-05,-6.82e-06,0.0,0 STARLINK-5454,1 54774U 22175S   23150.69439057 -.00000682  00000-0 -23376-4 0  9991,2 54774  53.2178 260.9195 0001109  81.6683 278.4435 15.10478274 27056,6912.877,95.334,535.509,533.976,0.0
54774.0,STARLINK-5454,PAYLOAD,2023-05-31 00:36:20,15.10474389,0.0001108,53.2176,259.4316,80.6717,279.4401,-2.5093e-05,-7.1e-06,0.0,0 STARLINK-5454,1 54774U 22175S   23151.02523395 -.00000710  00000-0 -25093-4 0  9998,2 54774  53.2176 259.4316 0001108  80.6717 279.4401 15.10474389 24940,6912.889,95.334,535.52,533.988,0.0
54774.0,STARLINK-5454,PAYLOAD,2023-05-31 13:18:35,15.10478047,8.62e-05,53.2166,257.0488,84.8998,275.2093,-1.8358e-05,-5.98e-06,0.0,0 STARLINK-5454,1 54774U 22175S   23151.55457693 -.00000598  00000-0 -18358-4 0  9993,2 54774  53.2166 257.0488 0000862  84.8998 275.2093 15.10478047 27181,6912.878,95.334,535.339,534.147,0.0
54774.0,STARLINK-5454,PAYLOAD,2023-06-01 00:25:33,15.10482006,8.33e-05,53.2166,254.9642,85.9685,274.1403,7.0043e-06,-1.76e-06,0.0,0 STARLINK-5454,1 54774U 22175S   23152.01774960 -.00000176  00000-0  70043-5 0  9995,2 54774  53.2166 254.9642 0000833  85.9685 274.1403 15.10482006 25093,6912.866,95.334,535.307,534.155,0.0
54774.0,STARLINK-5454,PAYLOAD,2023-06-01 09:57:15,15.10488959,0.000111,53.2165,253.1775,77.9326,282.1792,-0.00014911,-2.775e-05,0.0,0 STARLINK-5454,1 54774U 22175S   23152.41476005 -.00002775  00000-0 -14911-3 0  9996,2 54774  53.2165 253.1775 0001110  77.9326 282.1792 15.10488959 27312,6912.845,95.333,535.477,533.942,0.0
54774.0,STARLINK-5454,PAYLOAD,2023-06-02 09:46:30,15.10458466,8.35e-05,53.2155,248.7121,88.094,272.0148,4.2619e-05,4.17e-06,0.0,0 STARLINK-5454,1 54774U 22175S   23153.40729481  .00000417  00000-0  42619-4 0  9991,2 54774  53.2155 248.7121 0000835  88.0940 272.0148 15.10458466 25304,6912.938,95.335,535.38,534.226,0.0
54774.0,STARLINK-5454,PAYLOAD,2023-06-02 16:07:37,15.10474085,0.0001046,53.2165,247.518,119.8336,240.2761,-4.1567e-05,-9.84e-06,0.0,0 STARLINK-5454,1 54774U 22175S   23153.67196028 -.00000984  00000-0 -41567-4 0  9997,2 54774  53.2165 247.5180 0001046 119.8336 240.2761 15.10474085 25341,6912.89,95.334,535.478,534.032,0.0
54774.0,STARLINK-5454,PAYLOAD,2023-06-03 12:46:17,15.10475796,0.0001188,53.2163,243.6452,146.2147,213.8921,2.5946e-05,1.39e-06,0.0,0 STARLINK-5454,1 54774U 22175S   23154.53214171  .00000139  00000-0  25946-4 0  9996,2 54774  53.2163 243.6452 0001188 146.2147 213.8921 15.10475796 27637,6912.885,95.334,535.571,533.929,0.0
54774.0,STARLINK-5454,PAYLOAD,2023-06-04 11:00:14,15.10467461,8.05e-05,53.2152,239.4801,90.6748,269.4337,4.364e-05,4.34e-06,0.0,0 STARLINK-5454,1 54774U 22175S   23155.45850444  .00000434  00000-0  43640-4 0  9996,2 54774  53.2152 239.4801 0000805  90.6748 269.4337 15.10467461 25614,6912.91,95.335,535.332,534.219,0.0
54774.0,STARLINK-5454,PAYLOAD,2023-06-04 12:35:31,15.10474435,8.26e-05,53.2153,239.1821,93.7177,266.391,9.8084e-06,-1.29e-06,0.0,0 STARLINK-5454,1 54774U 22175S   23155.52467015 -.00000129  00000-0  98084-5 0  9997,2 54774  53.2153 239.1821 0000826  93.7177 266.3910 15.10474435 27789,6912.889,95.334,535.325,534.183,0.0
54774.0,STARLINK-5454,PAYLOAD,2023-06-04 14:10:48,15.10475457,8.5e-05,53.2154,238.8838,99.9507,260.1582,2.3623e-05,1.01e-06,0.0,0 STARLINK-5454,1 54774U 22175S   23155.59083696  .00000101  00000-0  23623-4 0  9998,2 54774  53.2154 238.8838 0000850  99.9507 260.1582 15.10475457 25630,6912.886,95.334,535.339,534.163,0.0
54774.0,STARLINK-5454,PAYLOAD,2023-06-05 10:49:28,15.1047302,8.42e-05,53.2158,235.0126,90.6188,269.4901,-4.7835e-05,-1.088e-05,0.0,0 STARLINK-5454,1 54774U 22175S   23156.45102979 -.00001088  00000-0 -47835-4 0  9998,2 54774  53.2158 235.0126 0000842  90.6188 269.4901 15.10473020 25762,6912.893,95.334,535.34,534.176,0.0
54774.0,STARLINK-5454,PAYLOAD,2023-06-05 12:24:45,15.10476394,8.06e-05,53.2156,234.7156,91.9988,268.1097,-2.0434e-05,-6.32e-06,0.0,0 STARLINK-5454,1 54774U 22175S   23156.51719465 -.00000632  00000-0 -20434-4 0  9999,2 54774  53.2156 234.7156 0000806  91.9988 268.1097 15.10476394 27931,6912.883,95.334,535.305,534.191,0.0
54774.0,STARLINK-5454,PAYLOAD,2023-06-06 09:03:24,15.10541242,4.49e-05,53.2157,230.8446,95.4445,264.6599,-0.00077913,-0.00013262,0.0,0 STARLINK-5454,1 54774U 22175S   23157.37737215 -.00013262  00000-0 -77913-3 0  9993,2 54774  53.2157 230.8446 0000449  95.4445 264.6599 15.10541242 25909,6912.685,95.33,534.861,534.24,0.0
